GLOBALSTAR M045         
1 25676U 99019A   24182.63541861 -.00000073  00000+0  17835-3 0  9992
2 25676  51.9945 227.2499 0000591 227.0240 301.4010 12.27040336150236
GLOBALSTAR M019         
1 25677U 99019B   24182.58199653 -.00000050  00000+0  41878-3 0  9994
2 25677  51.9895 333.0289 0000628  26.4833  51.7697 12.13856501142448
GLOBALSTAR M044         
1 25678U 99019C   24182.49558696 -.00000057  00000+0  37114-3 0  9996
2 25678  51.9949 240.6334 0006375  84.5394  49.8914 11.90234363129440
GLOBALSTAR M042         
1 25679U 99019D   24182.88094236 -.00000046  00000+0  43688-3 0  9996
2 25679  52.0034 322.6854 0002120 294.2864 231.9516 12.22063831142377
GLOBALSTAR M025         
1 25770U 99031A   24182.50586451 -.00000065  00000+0  71997-4 0  9992
2 25770  51.9803 253.9654 0001494 260.7630 234.5197 11.22550875442215
GLOBALSTAR M049         
1 25771U 99031B   24182.55067578 -.00000132  00000+0 -23112-2 0  9992
2 25771  51.9875 270.9528 0003267 148.5159 211.5834 11.12107094 78301
GLOBALSTAR M047         
1 25772U 99031C   24182.59575237 -.00000068  00000+0  37835-4 0  9999
2 25772  51.9852 301.4099 0016042  21.1873 338.9595 11.31920745431290
GLOBALSTAR M052         
1 25773U 99031D   24182.54694222 -.00000015  00000+0  17138-2 0  9995
2 25773  51.9889  24.5802 0002185 326.7036  73.6008 11.15051878439287
